LIME                    
1 62648U 25009AR  26068.73906781  .00013254  00000+0  47723-3 0  9995
2 62648  97.3985 151.4831 0001635  35.9029 324.2320 15.28703313 63766
STARLINK-35305          
1 66561U 25268E   26067.99192392 -.00033055  00000+0 -11986-2 0  9996
2 66561  42.9995 350.9526 0001415 290.3728  69.6972 15.27536182 17856
